{"type": "FeatureCollection", "features": [ {"type": "Feature", "properties": {"norad_id": 30612, "name": "FENGYUN 1C DEB", "group": "fengyun-1c-debris", "lat": 46.52733666125518, "lon": -40.87276466797093, "alt_km": 459.574788831309, "timestamp": "2025-12-06T22:38:43.005794+00:00", "meta": {"OBJECT_NAME": "FENGYUN 1C DEB", "OBJECT_ID": "1999-025AMT", "EPOCH": "2025-12-06T10:32:09.917088", "MEAN_MOTION": 15.27934707, "ECCENTRICITY": 0.00336791, "INCLINATION": 99.0824, "RA_OF_ASC_NODE": 328.2275, "ARG_OF_PERICENTER": 9.5451, "MEAN_ANOMALY": 143.8268, "EPHEMERIS_TYPE": 0, "CLASSIFICATION_TYPE": "U", "NORAD_CAT_ID": 30612, "ELEMENT_SET_NO": 999, "REV_AT_EPOCH": 161, "BSTAR": 0.0062437056, "MEAN_MOTION_DOT": 0.00176829, "MEAN_MOTION_DDOT": 0}, "tle": {"line1": "1 30612U 99025AMT 25340.43900367  .00176829  00000+0  62437-2 0  9999", "line2": "2 30612  99.0824 328.2275 0033679   9.5451 143.8268 15.27934707  1612"}}, "geometry": {"type": "Point", "coordinates": [-40.87276466797093, 46.52733666125518]}}, {"type": "Feature", "properties": {"norad_id": 30613, "name": "FENGYUN 1C DEB", "group": "fengyun-1c-debris", "lat": 56.91927044098442, "lon": 87.17580520140669, "alt_km": 543.6145319396919, "timestamp": "2025-12-06T22:38:43.005803+00:00", "meta": {"OBJECT_NAME": "FENGYUN 1C DEB", "OBJECT_ID": "1999-025AMU", "EPOCH": "2025-12-06T06:32:32.909568", "MEAN_MOTION": 15.15506984, "ECCENTRICITY": 0.00707611, "INCLINATION": 98.3086, "RA_OF_ASC_NODE": 99.4065, "ARG_OF_PERICENTER": 188.8834, "MEAN_ANOMALY": 171.1149, "EPHEMERIS_TYPE": 0, "CLASSIFICATION_TYPE": "U", "NORAD_CAT_ID": 30613, "ELEMENT_SET_NO": 999, "REV_AT_EPOCH": 99298, "BSTAR": 0.0075999396, "MEAN_MOTION_DOT": 0.00156209, "MEAN_MOTION_DDOT": 0}, "tle": {"line1": "1 30613U 99025AMU 25340.27260312  .00156209  00000+0  75999-2 0  9998", "line2": "2 30613  98.3086  99.4065 0070761 188.8834 171.1149 15.15506984992988"}}, "geometry": {"type": "Point", "coordinates": [87.17580520140669, 56.91927044098442]}}, {"type": "Feature", "properties": {"norad_id": 30616, "name": "FENGYUN 1C DEB", "group": "fengyun-1c-debris", "lat": -45.57659179408783, "lon": 48.93993210640097, "alt_km": 918.8884042286345, "timestamp": "2025-12-06T22:38:43.005813+00:00", "meta": {"OBJECT_NAME": "FENGYUN 1C DEB", "OBJECT_ID": "1999-025AMX", "EPOCH": "2025-12-05T21:42:22.174848", "MEAN_MOTION": 13.35981923, "ECCENTRICITY": 0.03793477, "INCLINATION": 98.641, "RA_OF_ASC_NODE": 39.1319, "ARG_OF_PERICENTER": 273.1214, "MEAN_ANOMALY": 82.6585, "EPHEMERIS_TYPE": 0, "CLASSIFICATION_TYPE": "U", "NORAD_CAT_ID": 30616, "ELEMENT_SET_NO": 999, "REV_AT_EPOCH": 91609, "BSTAR": 0.0026964888, "MEAN_MOTION_DOT": 2.043e-05, "MEAN_MOTION_DDOT": 0}, "tle": {"line1": "1 30616U 99025AMX 25339.90442332  .00002043  00000+0  26965-2 0  9998", "line2": "2 30616  98.6410  39.1319 0379347 273.1214  82.6585 13.35981923916098"}}, "geometry": {"type": "Point", "coordinates": [48.93993210640097, -45.57659179408783]}}, {"type": "Feature", "properties": {"norad_id": 30619, "name": "FENGYUN 1C DEB", "group": "fengyun-1c-debris", "lat": -55.5413181604264, "lon": 171.76451756269202, "alt_km": 906.960558807702, "timestamp": "2025-12-06T22:38:43.005824+00:00", "meta": {"OBJECT_NAME": "FENGYUN 1C DEB", "OBJECT_ID": "1999-025ANA", "EPOCH": "2025-12-06T08:14:08.187648", "MEAN_MOTION": 14.41071099, "ECCENTRICITY": 0.02161661, "INCLINATION": 98.2962, "RA_OF_ASC_NODE": 3.4579, "ARG_OF_PERICENTER": 77.7022, "MEAN_ANOMALY": 284.8277, "EPHEMERIS_TYPE": 0, "CLASSIFICATION_TYPE": "U", "NORAD_CAT_ID": 30619, "ELEMENT_SET_NO": 999, "REV_AT_EPOCH": 98857, "BSTAR": 0.0005347614, "MEAN_MOTION_DOT": 2.225e-05, "MEAN_MOTION_DDOT": 0}, "tle": {"line1": "1 30619U 99025ANA 25340.34315032  .00002225  00000+0  53476-3 0  9997", "line2": "2 30619  98.2962   3.4579 0216166  77.7022 284.8277 14.41071099988573"}}, "geometry": {"type": "Point", "coordinates": [171.76451756269202, -55.5413181604264]}}, {"type": "Feature", "properties": {"norad_id": 30621, "name": "FENGYUN 1C DEB", "group": "fengyun-1c-debris", "lat": -80.13363957331184, "lon": -13.728799876048681, "alt_km": 820.2902108154885, "timestamp": "2025-12-06T22:38:43.005834+00:00", "meta": {"OBJECT_NAME": "FENGYUN 1C DEB", "OBJECT_ID": "1999-025ANC", "EPOCH": "2025-12-06T08:22:19.865856", "MEAN_MOTION": 14.03736799, "ECCENTRICITY": 0.01385391, "INCLINATION": 98.6977, "RA_OF_ASC_NODE": 284.0429, "ARG_OF_PERICENTER": 324.4806, "MEAN_ANOMALY": 187.6777, "EPHEMERIS_TYPE": 0, "CLASSIFICATION_TYPE": "U", "NORAD_CAT_ID": 30621, "ELEMENT_SET_NO": 999, "REV_AT_EPOCH": 95500, "BSTAR": 0.0049376134, "MEAN_MOTION_DOT": 8.425e-05, "MEAN_MOTION_DDOT": 0}, "tle": {"line1": "1 30621U 99025ANC 25340.34884104  .00008425  00000+0  49376-2 0  9992", "line2": "2 30621  98.6977 284.0429 0138539 324.4806 187.6777 14.03736799955006"}}, "geometry": {"type": "Point", "coordinates": [-13.728799876048681, -80.13363957331184]}}, {"type": "Feature", "properties": {"norad_id": 30622, "name": "FENGYUN 1C DEB", "group": "fengyun-1c-debris", "lat": -47.52971367325386, "lon": 3.226420501782452, "alt_km": 784.8766272241328, "timestamp": "2025-12-06T22:38:43.005844+00:00", "meta": {"OBJECT_NAME": "FENGYUN 1C DEB", "OBJECT_ID": "1999-025AND", "EPOCH": "2025-12-05T06:41:26.691360", "MEAN_MOTION": 14.31010694, "ECCENTRICITY": 0.00725582, "INCLINATION": 101.0015, "RA_OF_ASC_NODE": 348.8541, "ARG_OF_PERICENTER": 35.2074, "MEAN_ANOMALY": 345.0178, "EPHEMERIS_TYPE": 0, "CLASSIFICATION_TYPE": "U", "NORAD_CAT_ID": 30622, "ELEMENT_SET_NO": 999, "REV_AT_EPOCH": 68691, "BSTAR": 0.00612372, "MEAN_MOTION_DOT": 0.00016566, "MEAN_MOTION_DDOT": 0}, "tle": {"line1": "1 30622U 99025AND 25339.27878115  .00016566  00000+0  61237-2 0  9993", "line2": "2 30622 101.0015 348.8541 0072558  35.2074 345.0178 14.31010694686911"}}, "geometry": {"type": "Point", "coordinates": [3.226420501782452, -47.52971367325386]}}, {"type": "Feature", "properties": {"norad_id": 30623, "name": "FENGYUN 1C DEB", "group": "fengyun-1c-debris", "lat": 63.23926725502435, "lon": -1.5730003004837732, "alt_km": 840.9762861257104, "timestamp": "2025-12-06T22:38:43.005854+00:00", "meta": {"OBJECT_NAME": "FENGYUN 1C DEB", "OBJECT_ID": "1999-025ANE", "EPOCH": "2025-12-06T06:40:18.751584", "MEAN_MOTION": 13.29331494, "ECCENTRICITY": 0.0403848, "INCLINATION": 98.8232, "RA_OF_ASC_NODE": 159.918, "ARG_OF_PERICENTER": 123.7589, "MEAN_ANOMALY": 48.6422, "EPHEMERIS_TYPE": 0, "CLASSIFICATION_TYPE": "U", "NORAD_CAT_ID": 30623, "ELEMENT_SET_NO": 999, "REV_AT_EPOCH": 91130, "BSTAR": 0.00089640881, "MEAN_MOTION_DOT": 6.17e-06, "MEAN_MOTION_DDOT": 0}, "tle": {"line1": "1 30623U 99025ANE 25340.27799481  .00000617  00000+0  89641-3 0  9994", "line2": "2 30623  98.8232 159.9180 0403848 123.7589  48.6422 13.29331494911302"}}, "geometry": {"type": "Point", "coordinates": [-1.5730003004837732, 63.23926725502435]}}, {"type": "Feature", "properties": {"norad_id": 30624, "name": "FENGYUN 1C DEB", "group": "fengyun-1c-debris", "lat": -47.10553000207459, "lon": 72.20600433467321, "alt_km": 680.4563898137158, "timestamp": "2025-12-06T22:38:43.005864+00:00", "meta": {"OBJECT_NAME": "FENGYUN 1C DEB", "OBJECT_ID": "1999-025ANF", "EPOCH": "2025-12-05T04:09:10.347552", "MEAN_MOTION": 14.6176874, "ECCENTRICITY": 0.00210678, "INCLINATION": 98.8881, "RA_OF_ASC_NODE": 60.6071, "ARG_OF_PERICENTER": 290.528, "MEAN_ANOMALY": 69.3658, "EPHEMERIS_TYPE": 0, "CLASSIFICATION_TYPE": "U", "NORAD_CAT_ID": 30624, "ELEMENT_SET_NO": 999, "REV_AT_EPOCH": 97385, "BSTAR": 0.0095402737, "MEAN_MOTION_DOT": 0.00048021, "MEAN_MOTION_DDOT": 0}, "tle": {"line1": "1 30624U 99025ANF 25339.17303643  .00048021  00000+0  95403-2 0  9996", "line2": "2 30624  98.8881  60.6071 0021067 290.5280  69.3658 14.61768740973854"}}, "geometry": {"type": "Point", "coordinates": [72.20600433467321, -47.10553000207459]}}, {"type": "Feature", "properties": {"norad_id": 30625, "name": "FENGYUN 1C DEB", "group": "fengyun-1c-debris", "lat": -21.59784608797023, "lon": -59.78887459466982, "alt_km": 725.241401412065, "timestamp": "2025-12-06T22:38:43.005874+00:00", "meta": {"OBJECT_NAME": "FENGYUN 1C DEB", "OBJECT_ID": "1999-025ANG", "EPOCH": "2025-12-06T07:45:00.343296", "MEAN_MOTION": 14.41224363, "ECCENTRICITY": 0.00508887, "INCLINATION": 98.9294, "RA_OF_ASC_NODE": 295.9945, "ARG_OF_PERICENTER": 321.2504, "MEAN_ANOMALY": 38.5038, "EPHEMERIS_TYPE": 0, "CLASSIFICATION_TYPE": "U", "NORAD_CAT_ID": 30625, "ELEMENT_SET_NO": 999, "REV_AT_EPOCH": 96600, "BSTAR": 0.0087206215, "MEAN_MOTION_DOT": 0.00028668, "MEAN_MOTION_DDOT": 0}, "tle": {"line1": "1 30625U 99025ANG 25340.32292064  .00028668  00000+0  87206-2 0  9997", "line2": "2 30625  98.9294 295.9945 0050888 321.2504  38.5038 14.41224363966006"}}, "geometry": {"type": "Point", "coordinates": [-59.78887459466982, -21.59784608797023]}}, {"type": "Feature", "properties": {"norad_id": 30628, "name": "FENGYUN 1C DEB", "group": "fengyun-1c-debris", "lat": 29.003597528802718, "lon": 81.08990246908577, "alt_km": 670.8622410067364, "timestamp": "2025-12-06T22:38:43.005884+00:00", "meta": {"OBJECT_NAME": "FENGYUN 1C DEB", "OBJECT_ID": "1999-025ANK", "EPOCH": "2025-12-06T12:09:00.700704", "MEAN_MOTION": 14.68734019, "ECCENTRICITY": 0.00233835, "INCLINATION": 99.3405, "RA_OF_ASC_NODE": 255.3555, "ARG_OF_PERICENTER": 267.9787, "MEAN_ANOMALY": 91.8737, "EPHEMERIS_TYPE": 0, "CLASSIFICATION_TYPE": "U", "NORAD_CAT_ID": 30628, "ELEMENT_SET_NO": 999, "REV_AT_EPOCH": 98379, "BSTAR": 0.0051200086, "MEAN_MOTION_DOT": 0.00030025, "MEAN_MOTION_DDOT": 0}, "tle": {"line1": "1 30628U 99025ANK 25340.50625811  .00030025  00000+0  51200-2 0  9995", "line2": "2 30628  99.3405 255.3555 0023383 267.9787  91.8737 14.68734019983790"}}, "geometry": {"type": "Point", "coordinates": [81.08990246908577, 29.003597528802718]}}]}